{
  "type": "FeatureCollection",
  "features": [
    {
      "type": "Feature",
      "properties": {
        "norad_id": 66562,
        "name": "STARLINK-35579",
        "group": "last-30-days",
        "lat": 41.64577009222913,
        "lon": -146.21211128605836,
        "alt_km": 410.2949322262457,
        "timestamp": "2025-12-09T07:41:31.972853+00:00",
        "meta_object_name": "STARLINK-35579",
        "meta_object_id": "2025-268F",
        "meta_epoch": "2025-12-08T22:00:03.000096",
        "meta_mean_motion": 15.5165695,
        "meta_eccentricity": 0.00015547,
        "meta_inclination": 43.0003,
        "meta_ra_of_asc_node": 143.5406,
        "meta_arg_of_pericenter": 262.2688,
        "meta_mean_anomaly": 77.4624,
        "meta_ephemeris_type": 0,
        "meta_classification_type": "U",
        "meta_norad_cat_id": 66562,
        "meta_element_set_no": 999,
        "meta_rev_at_epoch": 405,
        "meta_bstar": -0.027839423,
        "meta_mean_motion_dot": -0.01534324,
        "meta_mean_motion_ddot": 0,
        "tle_line1": "1 66562U 25268F   25342.91670139 -.01534324  00000+0 -27839-1 0  9993",
        "tle_line2": "2 66562  43.0003 143.5406 0001554 262.2688  77.4624 15.51656950  4051"
      },
      "geometry": {
        "type": "Point",
        "coordinates": [
          -146.21211128605836,
          41.64577009222913
        ]
      }
    },
    {
      "type": "Feature",
      "properties": {
        "norad_id": 66563,
        "name": "STARLINK-35437",
        "group": "last-30-days",
        "lat": 42.3164024034719,
        "lon": -141.1387767991975,
        "alt_km": 410.2230043170239,
        "timestamp": "2025-12-09T07:41:31.972863+00:00",
        "meta_object_name": "STARLINK-35437",
        "meta_object_id": "2025-268G",
        "meta_epoch": "2025-12-08T22:00:03.000096",
        "meta_mean_motion": 15.51624774,
        "meta_eccentricity": 0.00016364,
        "meta_inclination": 43.0005,
        "meta_ra_of_asc_node": 143.5311,
        "meta_arg_of_pericenter": 263.7118,
        "meta_mean_anomaly": 79.8677,
        "meta_ephemeris_type": 0,
        "meta_classification_type": "U",
        "meta_norad_cat_id": 66563,
        "meta_element_set_no": 999,
        "meta_rev_at_epoch": 405,
        "meta_bstar": -0.026979058,
        "meta_mean_motion_dot": -0.01465866,
        "meta_mean_motion_ddot": 0,
        "tle_line1": "1 66563U 25268G   25342.91670139 -.01465866  00000+0 -26979-1 0  9992",
        "tle_line2": "2 66563  43.0005 143.5311 0001636 263.7118  79.8677 15.51624774  4057"
      },
      "geometry": {
        "type": "Point",
        "coordinates": [
          -141.1387767991975,
          42.3164024034719
        ]
      }
    },
    {
      "type": "Feature",
      "properties": {
        "norad_id": 66564,
        "name": "STARLINK-35358",
        "group": "last-30-days",
        "lat": 42.566435034967895,
        "lon": -138.56361607272007,
        "alt_km": 410.20759488886415,
        "timestamp": "2025-12-09T07:41:31.972873+00:00",
        "meta_object_name": "STARLINK-35358",
        "meta_object_id": "2025-268H",
        "meta_epoch": "2025-12-08T22:00:03.000096",
        "meta_mean_motion": 15.51654095,
        "meta_eccentricity": 0.00016164,
        "meta_inclination": 43.0004,
        "meta_ra_of_asc_node": 143.5267,
        "meta_arg_of_pericenter": 261.6254,
        "meta_mean_anomaly": 83.8593,
        "meta_ephemeris_type": 0,
        "meta_classification_type": "U",
        "meta_norad_cat_id": 66564,
        "meta_element_set_no": 999,
        "meta_rev_at_epoch": 400,
        "meta_bstar": -0.027788883,
        "meta_mean_motion_dot": -0.01531684,
        "meta_mean_motion_ddot": 0,
        "tle_line1": "1 66564U 25268H   25342.91670139 -.01531684  00000+0 -27789-1 0  9995",
        "tle_line2": "2 66564  43.0004 143.5267 0001616 261.6254  83.8593 15.51654095  4009"
      },
      "geometry": {
        "type": "Point",
        "coordinates": [
          -138.56361607272007,
          42.566435034967895
        ]
      }
    },
    {
      "type": "Feature",
      "properties": {
        "norad_id": 66565,
        "name": "STARLINK-35893",
        "group": "last-30-days",
        "lat": 42.758148777385344,
        "lon": -135.97482616046256,
        "alt_km": 410.22904966952865,
        "timestamp": "2025-12-09T07:41:31.972883+00:00",
        "meta_object_name": "STARLINK-35893",
        "meta_object_id": "2025-268J",
        "meta_epoch": "2025-12-08T22:00:03.000096",
        "meta_mean_motion": 15.51623541,
        "meta_eccentricity": 0.00017377,
        "meta_inclination": 43.0005,
        "meta_ra_of_asc_node": 143.5212,
        "meta_arg_of_pericenter": 261.868,
        "meta_mean_anomaly": 85.5462,
        "meta_ephemeris_type": 0,
        "meta_classification_type": "U",
        "meta_norad_cat_id": 66565,
        "meta_element_set_no": 999,
        "meta_rev_at_epoch": 405,
        "meta_bstar": -0.026946291,
        "meta_mean_motion_dot": -0.01464264,
        "meta_mean_motion_ddot": 0,
        "tle_line1": "1 66565U 25268J   25342.91670139 -.01464264  00000+0 -26946-1 0  9999",
        "tle_line2": "2 66565  43.0005 143.5212 0001737 261.8680  85.5462 15.51623541  4051"
      },
      "geometry": {
        "type": "Point",
        "coordinates": [
          -135.97482616046256,
          42.758148777385344
        ]
      }
    },
    {
      "type": "Feature",
      "properties": {
        "norad_id": 66566,
        "name": "STARLINK-35871",
        "group": "last-30-days",
        "lat": 42.89113941977902,
        "lon": -133.36795641454106,
        "alt_km": 410.2039608705127,
        "timestamp": "2025-12-09T07:41:31.972893+00:00",
        "meta_object_name": "STARLINK-35871",
        "meta_object_id": "2025-268K",
        "meta_epoch": "2025-12-08T22:00:03.000096",
        "meta_mean_motion": 15.51619966,
        "meta_eccentricity": 0.00017259,
        "meta_inclination": 43.0006,
        "meta_ra_of_asc_node": 143.5163,
        "meta_arg_of_pericenter": 263.8852,
        "meta_mean_anomaly": 85.4498,
        "meta_ephemeris_type": 0,
        "meta_classification_type": "U",
        "meta_norad_cat_id": 66566,
        "meta_element_set_no": 999,
        "meta_rev_at_epoch": 405,
        "meta_bstar": -0.026898927,
        "meta_mean_motion_dot": -0.01461791,
        "meta_mean_motion_ddot": 0,
        "tle_line1": "1 66566U 25268K   25342.91670139 -.01461791  00000+0 -26899-1 0  9999",
        "tle_line2": "2 66566  43.0006 143.5163 0001725 263.8852  85.4498 15.51619966  4052"
      },
      "geometry": {
        "type": "Point",
        "coordinates": [
          -133.36795641454106,
          42.89113941977902
        ]
      }
    },
    {
      "type": "Feature",
      "properties": {
        "norad_id": 66567,
        "name": "STARLINK-35825",
        "group": "last-30-days",
        "lat": 42.9643398072472,
        "lon": -130.75217523671373,
        "alt_km": 410.1595255972752,
        "timestamp": "2025-12-09T07:41:31.972905+00:00",
        "meta_object_name": "STARLINK-35825",
        "meta_object_id": "2025-268L",
        "meta_epoch": "2025-12-08T22:00:03.000096",
        "meta_mean_motion": 15.51663026,
        "meta_eccentricity": 0.00016323,
        "meta_inclination": 43.0005,
        "meta_ra_of_asc_node": 143.5121,
        "meta_arg_of_pericenter": 259.42,
        "meta_mean_anomaly": 91.8134,
        "meta_ephemeris_type": 0,
        "meta_classification_type": "U",
        "meta_norad_cat_id": 66567,
        "meta_element_set_no": 999,
        "meta_rev_at_epoch": 405,
        "meta_bstar": -0.028054806,
        "meta_mean_motion_dot": -0.01545402,
        "meta_mean_motion_ddot": 0,
        "tle_line1": "1 66567U 25268L   25342.91670139 -.01545402  00000+0 -28055-1 0  9998",
        "tle_line2": "2 66567  43.0005 143.5121 0001632 259.4200  91.8134 15.51663026  4055"
      },
      "geometry": {
        "type": "Point",
        "coordinates": [
          -130.75217523671373,
          42.9643398072472
        ]
      }
    },
    {
      "type": "Feature",
      "properties": {
        "norad_id": 66568,
        "name": "STARLINK-35803",
        "group": "last-30-days",
        "lat": 42.97748402161768,
        "lon": -128.13406642308686,
        "alt_km": 410.19059328611,
        "timestamp": "2025-12-09T07:41:31.972917+00:00",
        "meta_object_name": "STARLINK-35803",
        "meta_object_id": "2025-268M",
        "meta_epoch": "2025-12-08T22:00:03.000096",
        "meta_mean_motion": 15.51668672,
        "meta_eccentricity": 0.00017035,
        "meta_inclination": 43.0002,
        "meta_ra_of_asc_node": 143.5066,
        "meta_arg_of_pericenter": 259.0817,
        "meta_mean_anomaly": 94.0636,
        "meta_ephemeris_type": 0,
        "meta_classification_type": "U",
        "meta_norad_cat_id": 66568,
        "meta_element_set_no": 999,
        "meta_rev_at_epoch": 405,
        "meta_bstar": -0.02811223,
        "meta_mean_motion_dot": -0.01548581,
        "meta_mean_motion_ddot": 0,
        "tle_line1": "1 66568U 25268M   25342.91670139 -.01548581  00000+0 -28112-1 0  9994",
        "tle_line2": "2 66568  43.0002 143.5066 0001703 259.0817  94.0636 15.51668672  4054"
      },
      "geometry": {
        "type": "Point",
        "coordinates": [
          -128.13406642308686,
          42.97748402161768
        ]
      }
    }
  ]
}